# From MPEC 2020-R04
C/2020 P1 (NEOWISE),e,44.9412,53.4031,8.9467,415.8179,0.0001162,0.99917472,0.0000,10/20.1610/2020,2000,g 14.0,3.2
# From MPEC 2020-R04
C/2020 P3 (ATLAS),e,61.8916,19.5071,82.4457,3981,0.0000039,0.99828978,0.0000,04/23.4617/2021,2000,g  6.0,4.0
# From MPEC 2020-QN1
C/2020 P4-A (SOHO),h,08/08.2175/2020,26.3307,175.2073,177.4761,1.002090,0.090759,2000,5.3,6.0
# From MPEC 2020-QN1
C/2020 P4-B (SOHO),h,08/08.1268/2020,27.3008,171.5000,173.4031,1.000484,0.098304,2000,0.0,6.0
# From MPEC 2020-QN1
C/2020 P4-C (SOHO),h,08/06.8019/2020,37.4581,164.0422,116.7322,1.012860,0.086542,2000,-1.6,6.0
# From MPEC 2020-R04
C/2020 Q1 (Borisov),e,142.9314,52.4978,10.3881,277.2499,0.0002135,0.99524606,0.0000,08/15.1994/2020,2000,g 14.0,4.0
# From MPEC 2020-R04
C/2020 Q2 (PANSTARRS),e,3.3126,179.9154,118.6858,10.89743,0.0273979,0.50415298,6.0738,09/17.0/2020,2000,g 12.0,3.2
# From MPEC 2020-RB9
C/2020 R2 (PANSTARRS),e,53.2416,195.0809,211.7389,459.2289,0.0001002,0.98978636,0.0000,02/24.2495/2022,2000,g  9.0,4.0
# From MPEC 2020-S33
C/2020 R4 (ATLAS),e,164.4570,323.3174,46.9696,75.32620,0.0015076,0.98637793,0.0000,03/02.1579/2021,2000,g 13.5,4.0
# From  98, 1083
1P/Halley,e,162.2939,58.3725,111.3112,17.87128,0.0130458,0.96616612,165.1019,09/17.0/2020,2000,g  4.0,6.0
# From MPC118097
2P/Encke,e,11.7650,334.5496,186.5660,2.215449,0.2988901,0.84801094,24.8539,09/17.0/2020,2000,g 11.5,6.0
# From MPEC 2015-A10
4P/Faye,e,8.0078,193.0846,206.8782,3.828340,0.1315795,0.57753967,312.9901,09/17.0/2020,2000,g  8.0,6.0
# From MPEC 2015-S97
6P/d'Arrest,e,19.5122,138.9344,178.0960,3.497653,0.1506742,0.61261182,304.8860,09/17.0/2020,2000,g  9.0,4.0
# From MPEC 2015-E14
7P/Pons-Winnecke,e,22.3638,93.3784,172.5794,3.414728,0.1561960,0.63851785,320.6235,09/17.0/2020,2000,g  9.0,4.0
# From MPC 75715
8P/Tuttle,e,54.9116,270.2049,207.4902,5.703946,0.0723504,0.82009701,335.0553,09/17.0/2020,2000,g  9.0,4.0
# From MPEC 2019-JE2
9P/Tempel,e,10.4713,68.7316,179.3197,3.147270,0.1765237,0.50943617,265.7642,09/17.0/2020,2000,g  9.0,4.0
# From MPC114607
10P/Tempel,e,12.0398,117.8098,195.5188,3.060656,0.1840697,0.53852020,325.3399,09/17.0/2020,2000,g  5.0,10.0
# From MPEC 2017-L52
11P/Tempel-Swift-LINEAR,e,14.4204,238.9176,167.9417,3.282794,0.1657062,0.57694336,348.3640,09/17.0/2020,2000,g  9.0,4.0
# From  27, 604
12P/Pons-Brooks,e,74.0858,255.7214,199.0349,17.09753,0.0139413,0.95430207,341.7082,09/17.0/2020,2000,g  5.0,6.0
# From  27, 604
13P/Olbers,e,44.6262,85.8602,64.5315,16.68088,0.0144669,0.92971191,339.9856,09/17.0/2020,2000,g  5.0,6.0
# From MPC100283
14P/Wolf,e,27.9041,202.0740,158.9838,4.259091,0.1121318,0.35669209,114.3508,09/17.0/2020,2000,g  5.5,12.0
# From MPC 92276
15P/Finlay,e,6.7977,13.7221,347.8356,3.504398,0.1502394,0.71698802,314.9939,09/17.0/2020,2000,g 12.0,4.0
# From MPC 92276
16P/Brooks,e,3.0112,138.8700,245.1461,3.659022,0.1408175,0.48672373,329.9951,09/17.0/2020,2000,g  7.5,10.0
# From MPC114607
17P/Holmes,e,19.0289,326.6225,24.4798,3.638421,0.1420152,0.42818067,337.8672,09/17.0/2020,2000,g 10.0,6.0
# From MPC 92984
19P/Borrelly,e,29.3769,74.3891,351.8216,3.606133,0.1439267,0.63828177,287.6622,09/17.0/2020,2000,g  4.5,10.0
# From MPC111773
21P/Giacobini-Zinner,e,32.0168,195.3615,172.8480,3.495964,0.1507835,0.71070633,111.2141,09/17.0/2020,2000,g  9.0,6.0
# From MPC 94283
22P/Kopff,e,4.7420,120.8372,162.9678,3.442669,0.1542983,0.54889358,275.5970,09/17.0/2020,2000,g  3.0,10.4
# From MPC 14747
23P/Brorsen-Metcalf,e,19.1335,312.4179,128.8184,16.95410,0.0141186,0.97106154,0.0000,08/10.6269/1989,2000,g 10.0,6.0
# From MPC110085
24P/Schaumasse,e,11.6434,79.2281,57.8161,4.056609,0.1206311,0.70880240,124.8339,09/17.0/2020,2000,g  6.5,14.0
# From MPC 94674
26P/Grigg-Skjellerup,e,22.4421,211.5395,2.1932,3.013979,0.1883622,0.64058176,134.9443,09/17.0/2020,2000,g 12.0,16.0
# From MPC 78188
27P/Crommelin,e,29.1432,250.5834,195.9866,9.189217,0.0353823,0.91800327,118.2793,09/17.0/2020,2000,g 12.0,8.0
# From MPEC 2020-QH5
28P/Neujmin,e,14.3109,346.3400,347.4238,6.976563,0.0534862,0.77380521,350.5910,09/17.0/2020,2000,g  8.5,6.0
# From MPEC 2020-QH5
29P/Schwassmann-Wachmann,e,9.3668,312.3751,48.4372,6.034344,0.0664904,0.04421543,36.5862,09/17.0/2020,2000,g  4.0,4.0
# From MPC110085
30P/Reinmuth,e,8.5816,118.9238,11.6964,3.687577,0.1391850,0.52939041,154.9814,09/17.0/2020,2000,g  9.5,6.0
# From MPC108597
31P/Schwassmann-Wachmann,e,4.5473,114.1144,18.2453,4.240733,0.1128607,0.19236258,49.6059,09/17.0/2020,2000,g  5.0,8.0
# From MPC 92276
32P/Comas Sola,e,9.9209,57.3809,53.5016,4.496438,0.1033716,0.55826376,223.7319,09/17.0/2020,2000,g  6.5,8.0
# From MPEC 2013-O31
33P/Daniel,e,22.3212,66.3484,20.6103,4.083098,0.1194591,0.45228263,178.6667,09/17.0/2020,2000,g 10.0,12.0
# From  15, 452
35P/Herschel-Rigollet,e,64.827,356.450,29.048,28.5666,0.006455,0.9735532,0.000,12/24.0770/2091,2000,g  9.0,4.0
# From MPC105240
36P/Whipple,e,9.9522,181.8615,200.7859,4.131160,0.1173805,0.26857074,12.7122,09/17.0/2020,2000,g  8.5,6.0
# From MPEC 2018-HA5
37P/Forbes,e,8.9574,314.5608,330.0920,3.459443,0.1531774,0.53407715,132.7597,09/17.0/2020,2000,g 10.5,4.8
# From MPEC 2018-S50
38P/Stephan-Oterma,e,18.3552,77.9896,359.5352,11.25150,0.0261149,0.85893145,17.6564,09/17.0/2020,2000,g  3.5,12.0
# From MPC115887
39P/Oterma,e,1.5612,299.2554,95.1551,7.404369,0.0489184,0.22402924,312.5698,09/17.0/2020,2000,g  7.0,6.0
# From MPC100283
40P/Vaisala,e,11.4697,133.7807,47.4589,4.950980,0.0894679,0.62988399,191.0353,09/17.0/2020,2000,g  5.5,12.0
# From MPC105240
41P/Tuttle-Giacobini-Kresak,e,9.2210,140.9938,62.2627,3.086248,0.1817849,0.66021297,227.9570,09/17.0/2020,2000,g 10.0,16.0
# From MPC 94283
42P/Neujmin,e,3.9896,150.1878,147.1812,4.872937,0.0916258,0.58545616,181.9627,09/17.0/2020,2000,g 13.0,6.0
# From MPC102956
43P/Wolf-Harrington,e,9.3766,244.3677,224.0735,4.308326,0.1102151,0.43811789,163.3533,09/17.0/2020,2000,g  8.0,6.0
# From MPEC 2020-HN5
44P/Reinmuth,e,5.8984,286.4810,58.1359,3.688618,0.1391261,0.42717537,278.8112,09/17.0/2020,2000,g  8.3,6.0
# From MPC103849
45P/Honda-Mrkos-Pajdusakova,e,4.3247,87.7030,327.9506,3.050326,0.1850055,0.81759857,251.6584,09/17.0/2020,2000,g 13.5,8.0
# From MPC114607
46P/Wirtanen,e,11.7437,82.1569,356.3612,3.091702,0.1813041,0.65830243,116.8148,09/17.0/2020,2000,g 14.0,6.0
# From NK 2718
47P/Ashbrook-Jackson,e,13.0354,356.9252,357.6067,4.124937,0.1176463,0.31800315,140.5107,09/17.0/2020,2000,g  9.0,4.0
# From MPEC 2015-M77
48P/Johnson,e,12.2080,110.1267,216.6239,3.500516,0.1504894,0.42737077,115.3465,09/17.0/2020,2000,g  9.0,4.0
# From MPEC 2020-K19
49P/Arend-Rigaux,e,19.0461,118.7967,332.9715,3.569933,0.1461214,0.59851290,116.1779,09/17.0/2020,2000,g 11.3,4.4
# From MPEC 2015-S97
50P/Arend,e,19.0984,355.1623,49.3339,4.089324,0.1191864,0.52863909,200.8749,09/17.0/2020,2000,g  9.5,6.0
# From MPEC 2020-QH5
124P/Mrkos,e,31.5128,0.3700,183.8629,3.317826,0.1630886,0.50341961,23.3380,09/17.0/2020,2000,g 13.5,2.8
# From MPEC 2020-QH5
143P/Kowal-Mrkos,e,4.6970,245.2647,320.4762,4.285642,0.1110913,0.41057501,96.1102,09/17.0/2020,2000,g 13.5,2.0
# From MPEC 2020-QH5
156P/Russell-LINEAR,e,17.2629,35.3699,0.4240,3.459915,0.1531461,0.61472159,350.5249,09/17.0/2020,2000,g 15.5,2.0
# From MPEC 2020-QH5
162P/Siding Spring,e,27.5545,30.9123,357.1290,3.090772,0.1813859,0.58290283,345.1600,09/17.0/2020,2000,g 12.0,4.0
# From MPEC 2020-QH5
184P/Lovas,e,4.5732,173.2548,186.4342,3.793465,0.1333982,0.55099989,354.7732,09/17.0/2020,2000,g 13.5,4.0
# From MPEC 2020-QH5
186P/Garradd,e,28.5954,326.7207,283.5968,5.007454,0.0879587,0.12405123,44.4564,09/17.0/2020,2000,g  7.5,4.0
# From MPEC 2020-QH5
191P/McNaught,e,8.8431,98.2366,283.9657,3.636470,0.1421295,0.38613588,333.8498,09/17.0/2020,2000,g 13.0,4.0
# From MPEC 2020-QH5
220P/McNaught,e,8.1282,150.1041,180.5389,3.116496,0.1791448,0.50190554,344.8368,09/17.0/2020,2000,g 15.0,4.0
# From MPEC 2020-QH5
241P/LINEAR,e,21.1060,305.4834,111.3476,4.923751,0.0902111,0.61037740,331.8887,09/17.0/2020,2000,g 13.5,4.0
# From MPEC 2020-QH5
244P/Scotti,e,2.2592,353.9901,92.8835,4.895357,0.0909971,0.19847894,288.1106,09/17.0/2020,2000,g  9.0,4.0
# From MPEC 2020-QH5
246P/NEAT,e,15.9874,78.7471,176.2808,4.015436,0.1224912,0.28675642,340.5555,09/17.0/2020,2000,g 10.5,4.0
# From MPEC 2020-QH5
249P/LINEAR,e,8.3968,239.1763,65.6065,2.761941,0.2147250,0.82013893,17.0713,09/17.0/2020,2000,g 15.5,4.0
# From MPEC 2020-QH5
254P/McNaught,e,32.5723,129.1742,219.4819,4.614024,0.0994453,0.32011866,358.7399,09/17.0/2020,2000,g 11.0,4.0
# From MPEC 2020-QH5
277P/LINEAR,e,16.7790,276.3446,152.3170,3.851740,0.1303823,0.50555562,346.4181,09/17.0/2020,2000,g 14.0,4.0
# From MPEC 2020-QH5
278P/McNaught,e,6.6851,15.4479,238.0863,3.693621,0.1388435,0.43496350,0.6853,09/17.0/2020,2000,g 14.0,4.0
# From MPEC 2020-QH5
294P/LINEAR,e,18.2215,312.5901,235.5451,3.207041,0.1716119,0.59463624,50.1424,09/17.0/2020,2000,g 15.5,4.0
# From MPEC 2020-QH5
296P/Garradd,e,25.2349,263.6407,350.1260,3.497027,0.1507147,0.47857826,359.8607,09/17.0/2020,2000,g 14.0,4.0
# From MPEC 2020-QH5
312P/NEAT,e,19.7682,144.6696,207.5277,3.466585,0.1527043,0.42789587,358.7804,09/17.0/2020,2000,g 16.0,4.0
# From MPEC 2020-QH5
313P/Gibbs,e,10.9833,105.9721,254.6322,3.161507,0.1753327,0.23486913,27.1314,09/17.0/2020,2000,g 15.0,4.0
# From MPEC 2020-QH5
348P/PANSTARRS,e,17.7386,312.9399,135.4347,3.153664,0.1759871,0.30656396,269.7167,09/17.0/2020,2000,g 14.0,4.0
# From MPEC 2020-QH5
376P/LONEOS,e,1.1938,314.8340,285.2212,5.867852,0.0693402,0.51824010,24.5804,09/17.0/2020,2000,g 12.5,4.0
# From NK 3013
51P-A/Harrington,e,5.4257,83.6708,269.2514,3.708029,0.1380350,0.54308523,257.1713,09/17.0/2020,2000,g 16.0,8.0
# From NK 3014
51P-A/Harrington,e,5.4249,83.6863,269.2122,3.709050,0.1379781,0.54315778,256.9128,09/17.0/2020,2000,g 10.0,8.0
# From NK 3014
51P-A/Harrington,e,5.4249,83.6863,269.2122,3.709032,0.1379791,0.54315468,256.9160,09/17.0/2020,2000,g 10.0,8.0
# From MPEC 2015-L08
